COMMENT,ORIGINATOR,NORAD_CAT_ID,OBJECT_NAME,OBJECT_TYPE,CLASSIFICATION_TYPE,INTLDES,EPOCH,EPOCH_MICROSECONDS,MEAN_MOTION,ECCENTRICITY,INCLINATION,RA_OF_ASC_NODE,ARG_OF_PERICENTER,MEAN_ANOMALY,EPHEMERIS_TYPE,ELEMENT_SET_NO,REV_AT_EPOCH,BSTAR,MEAN_MOTION_DOT,MEAN_MOTION_DDOT,FILE,TLE_LINE0,TLE_LINE1,TLE_LINE2,OBJECT_ID,OBJECT_NUMBER,SEMIMAJOR_AXIS,PERIOD,APOGEE,PERIGEE,DECAYED,date
GENERATED VIA SPACETRACK.ORG API,18 SPCS,52182,SPACEBEE-128,PAYLOAD,U,22033AB,2023/1/1 4:49,865504,15.2913687,0.0008853,97.3702,84.8238,46.1353,314.0617,0,999,4182,0.0010054,0.00028466,0,3728759,0 SPACEBEE-128,1 52182U 22033AB  23001.20135261  .00028466  00000-0  10054-2 0  9992,2 52182  97.3702  84.8238 0008853  46.1353 314.0617 15.29136870 41826,2022-033AB,52182,6856.528,94.171,484.463,472.323,1,2023/1/1
GENERATED VIA SPACETRACK.ORG API,18 SPCS,52182,SPACEBEE-128,PAYLOAD,U,22033AB,2023/1/1 17:23,668992,15.29159672,0.0008756,97.3701,85.3421,44.3898,315.8043,0,999,4190,0.00084557,0.00023931,0,3728952,0 SPACEBEE-128,1 52182U 22033AB  23001.72485728  .00023931  00000-0  84557-3 0  9997,2 52182  97.3701  85.3421 0008756  44.3898 315.8043 15.29159672 41907,2022-033AB,52182,6856.46,94.169,484.329,472.322,1,2023/1/2
GENERATED VIA SPACETRACK.ORG API,18 SPCS,52182,SPACEBEE-128,PAYLOAD,U,22033AB,2023/1/1 17:23,668992,15.29159672,0.0008756,97.3701,85.3421,44.3898,315.8043,0,999,4188,0.00084557,0.00023931,0,3729097,0 SPACEBEE-128,1 52182U 22033AB  23001.72485728  .00023931  00000-0  84557-3 0  9997,2 52182  97.3701  85.3421 0008756  44.3898 315.8043 15.29159672 41884,2022-033AB,52182,6856.46,94.169,484.329,472.322,1,2023/1/3
GENERATED VIA SPACETRACK.ORG API,18 SPCS,52182,SPACEBEE-128,PAYLOAD,U,22033AB,2023/1/2 10:40,605856,15.29201284,0.0008715,97.3701,86.0553,41.6871,318.5032,0,999,4201,0.0010099,0.0002865,0,3729583,0 SPACEBEE-128,1 52182U 22033AB  23002.44465979  .00028650  00000-0  10099-2 0  9995,2 52182  97.3701  86.0553 0008715  41.6871 318.5032 15.29201284 42015,2022-033AB,52182,6856.336,94.167,484.176,472.225,1,2023/1/4
GENERATED VIA SPACETRACK.ORG API,18 SPCS,52182,SPACEBEE-128,PAYLOAD,U,22033AB,2023/1/2 10:40,605856,15.29201284,0.0008715,97.3701,86.0553,41.6871,318.5032,0,999,4199,0.0010099,0.0002865,0,3729860,0 SPACEBEE-128,1 52182U 22033AB  23002.44465979  .00028650  00000-0  10099-2 0  9995,2 52182  97.3701  86.0553 0008715  41.6871 318.5032 15.29201284 41991,2022-033AB,52182,6856.336,94.167,484.176,472.225,1,2023/1/5
GENERATED VIA SPACETRACK.ORG API,18 SPCS,52182,SPACEBEE-128,PAYLOAD,U,22033AB,2023/1/3 11:47,542912,15.29251771,0.0008682,97.3704,87.0929,38.1524,322.033,0,999,4215,0.00089865,0.00025515,0,3730648,0 SPACEBEE-128,1 52182U 22033AB  23003.49161508  .00025515  00000-0  89865-3 0  9997,2 52182  97.3704  87.0929 0008682  38.1524 322.0330 15.29251771 42157,2022-033AB,52182,6856.185,94.164,484.002,472.097,1,2023/1/6
GENERATED VIA SPACETRACK.ORG API,18 SPCS,52182,SPACEBEE-128,PAYLOAD,U,22033AB,2023/1/3 11:47,542912,15.29251771,0.0008682,97.3704,87.0929,38.1524,322.033,0,999,4217,0.00089865,0.00025515,0,3730926,0 SPACEBEE-128,1 52182U 22033AB  23003.49161508  .00025515  00000-0  89865-3 0  9997,2 52182  97.3704  87.0929 0008682  38.1524 322.0330 15.29251771 42179,2022-033AB,52182,6856.185,94.164,484.002,472.097,1,2023/1/7
GENERATED VIA SPACETRACK.ORG API,18 SPCS,52182,SPACEBEE-128,PAYLOAD,U,22033AB,2023/1/4 11:21,162272,15.29304096,0.000863,97.3702,88.0653,35.0377,325.143,0,999,4232,0.001067,0.00030376,0,3731823,0 SPACEBEE-128,1 52182U 22033AB  23004.47310373  .00030376  00000-0  10670-2 0  9990,2 52182  97.3702  88.0653 0008630  35.0377 325.1430 15.29304096 42328,2022-033AB,52182,6856.028,94.16,483.81,471.977,1,2023/1/8
GENERATED VIA SPACETRACK.ORG API,18 SPCS,52182,SPACEBEE-128,PAYLOAD,U,22033AB,2023/1/4 19:12,197888,15.29328217,0.0008591,97.37,88.3895,33.8934,326.2854,0,999,4235,0.0010946,0.0003119,0,3732645,0 SPACEBEE-128,1 52182U 22033AB  23004.80025692  .00031190  00000-0  10946-2 0  9995,2 52182  97.3700  88.3895 0008591  33.8934 326.2854 15.29328217 42354,2022-033AB,52182,6855.956,94.159,483.711,471.931,1,2023/1/9
GENERATED VIA SPACETRACK.ORG API,18 SPCS,52182,SPACEBEE-128,PAYLOAD,U,22033AB,2023/1/5 3:03,829152,15.29350514,0.0008603,97.3699,88.7139,32.4976,327.6792,0,999,4242,0.0010587,0.00030181,0,3732939,0 SPACEBEE-128,1 52182U 22033AB  23005.12740543  .00030181  00000-0  10587-2 0  9990,2 52182  97.3699  88.7139 0008603  32.4976 327.6792 15.29350514 42420,2022-033AB,52182,6855.89,94.158,483.653,471.857,1,2023/1/10
GENERATED VIA SPACETRACK.ORG API,18 SPCS,52182,SPACEBEE-128,PAYLOAD,U,22033AB,2023/1/5 4:37,911168,15.29354754,0.0008597,97.3699,88.7787,32.2555,327.9209,0,999,4243,0.0010364,0.00029545,0,3732963,0 SPACEBEE-128,1 52182U 22033AB  23005.19283462  .00029545  00000-0  10364-2 0  9994,2 52182  97.3699  88.7787 0008597  32.2555 327.9209 15.29354754 42439,2022-033AB,52182,6855.877,94.157,483.636,471.848,1,2023/1/11
GENERATED VIA SPACETRACK.ORG API,18 SPCS,52182,SPACEBEE-128,PAYLOAD,U,22033AB,2023/1/6 19:53,990112,15.29456612,0.0008488,97.37,90.3994,27.0731,333.0951,0,999,4266,0.00093277,0.00026656,0,3734236,0 SPACEBEE-128,1 52182U 22033AB  23006.82850683  .00026656  00000-0  93277-3 0  9995,2 52182  97.3700  90.3994 0008488  27.0731 333.0951 15.29456612 42661,2022-033AB,52182,6855.573,94.151,483.257,471.619,1,2023/1/12
GENERATED VIA SPACETRACK.ORG API,18 SPCS,52182,SPACEBEE-128,PAYLOAD,U,22033AB,2023/1/6 19:53,990112,15.29456612,0.0008488,97.37,90.3994,27.0731,333.0951,0,999,4268,0.00093277,0.00026656,0,3734255,0 SPACEBEE-128,1 52182U 22033AB  23006.82850683  .00026656  00000-0  93277-3 0  9995,2 52182  97.3700  90.3994 0008488  27.0731 333.0951 15.29456612 42683,2022-033AB,52182,6855.573,94.151,483.257,471.619,1,2023/1/13
GENERATED VIA SPACETRACK.ORG API,18 SPCS,52182,SPACEBEE-128,PAYLOAD,U,22033AB,2023/1/7 5:18,806400,15.29487513,0.0008504,97.3698,90.7887,25.6847,334.4814,0,999,4274,0.0011413,0.00032689,0,3735161,0 SPACEBEE-128,1 52182U 22033AB  23007.22105100  .00032689  00000-0  11413-2 0  9991,2 52182  97.3698  90.7887 0008504  25.6847 334.4814 15.29487513 42749,2022-033AB,52182,6855.48,94.149,483.175,471.515,1,2023/1/14
GENERATED VIA SPACETRACK.ORG API,18 SPCS,52182,SPACEBEE-128,PAYLOAD,U,22033AB,2023/1/7 11:35,41856,15.29503534,0.0008492,97.3698,91.048,24.9141,335.2507,0,999,4276,0.001094,0.00031341,0,3735140,0 SPACEBEE-128,1 52182U 22033AB  23007.48274354  .00031341  00000-0  10940-2 0  9995,2 52182  97.3698  91.0480 0008492  24.9141 335.2507 15.29503534 42769,2022-033AB,52182,6855.432,94.148,483.119,471.476,1,2023/1/15
GENERATED VIA SPACETRACK.ORG API,18 SPCS,52182,SPACEBEE-128,PAYLOAD,U,22033AB,2023/1/7 16:17,564224,15.29515896,0.0008466,97.3698,91.2424,24.154,336.0096,0,999,4281,0.0010423,0.00029861,0,3735488,0 SPACEBEE-128,1 52182U 22033AB  23007.67901116  .00029861  00000-0  10423-2 0  9999,2 52182  97.3698  91.2424 0008466  24.1540 336.0096 15.29515896 42817,2022-033AB,52182,6855.395,94.147,483.064,471.457,1,2023/1/16
GENERATED VIA SPACETRACK.ORG API,18 SPCS,52182,SPACEBEE-128,PAYLOAD,U,22033AB,2023/1/8 11:08,597888,15.29554848,0.0008409,97.3693,92.0206,21.5259,338.6334,0,999,4293,0.00094816,0.0002718,0,3736235,0 SPACEBEE-128,1 52182U 22033AB  23008.46406942  .00027180  00000-0  94816-3 0  9995,2 52182  97.3693  92.0206 0008409  21.5259 338.6334 15.29554848 42930,2022-033AB,52182,6855.279,94.145,482.909,471.379,1,2023/1/17
GENERATED VIA SPACETRACK.ORG API,18 SPCS,52182,SPACEBEE-128,PAYLOAD,U,22033AB,2023/1/8 11:08,597888,15.29554848,0.0008409,97.3693,92.0206,21.5259,338.6334,0,999,4291,0.00094816,0.0002718,0,3736443,0 SPACEBEE-128,1 52182U 22033AB  23008.46406942  .00027180  00000-0  94816-3 0  9995,2 52182  97.3693  92.0206 0008409  21.5259 338.6334 15.29554848 42918,2022-033AB,52182,6855.279,94.145,482.909,471.379,1,2023/1/18
GENERATED VIA SPACETRACK.ORG API,18 SPCS,52182,SPACEBEE-128,PAYLOAD,U,22033AB,2023/1/9 10:41,739392,15.29623177,0.0008353,97.3688,92.993,17.6524,342.5005,0,999,4308,0.0011629,0.0003345,0,3737263,0 SPACEBEE-128,1 52182U 22033AB  23009.44535578  .00033450  00000-0  11629-2 0  9999,2 52182  97.3688  92.9930 0008353  17.6524 342.5005 15.29623177 43084,2022-033AB,52182,6855.075,94.141,482.666,471.214,1,2023/1/19
GENERATED VIA SPACETRACK.ORG API,18 SPCS,52182,SPACEBEE-128,PAYLOAD,U,22033AB,2023/1/9 10:41,739392,15.29623177,0.0008353,97.3688,92.993,17.6524,342.5005,0,999,4306,0.0011629,0.0003345,0,3737400,0 SPACEBEE-128,1 52182U 22033AB  23009.44535578  .00033450  00000-0  11629-2 0  9999,2 52182  97.3688  92.9930 0008353  17.6524 342.5005 15.29623177 43062,2022-033AB,52182,6855.075,94.141,482.666,471.214,1,2023/1/20
GENERATED VIA SPACETRACK.ORG API,18 SPCS,52182,SPACEBEE-128,PAYLOAD,U,22033AB,2023/1/10 11:48,420864,15.29683829,0.0008297,97.3685,94.0305,14.3462,345.8012,0,999,4322,0.0010421,0.0003001,0,3738974,0 SPACEBEE-128,1 52182U 22033AB  23010.49201876  .00030010  00000-0  10421-2 0  9995,2 52182  97.3685  94.0305 0008297  14.3462 345.8012 15.29683829 43222,2022-033AB,52182,6854.894,94.137,482.446,471.071,1,2023/1/21
GENERATED VIA SPACETRACK.ORG API,18 SPCS,52182,SPACEBEE-128,PAYLOAD,U,22033AB,2023/1/10 11:48,420864,15.29683829,0.0008297,97.3685,94.0305,14.3462,345.8012,0,999,4324,0.0010421,0.0003001,0,3739038,0 SPACEBEE-128,1 52182U 22033AB  23010.49201876  .00030010  00000-0  10421-2 0  9995,2 52182  97.3685  94.0305 0008297  14.3462 345.8012 15.29683829 43244,2022-033AB,52182,6854.894,94.137,482.446,471.071,1,2023/1/22
GENERATED VIA SPACETRACK.ORG API,18 SPCS,52182,SPACEBEE-128,PAYLOAD,U,22033AB,2023/1/11 5:04,747360,15.29740186,0.0008286,97.3683,94.7438,11.9574,348.1861,0,999,4333,0.0013047,0.00037694,0,3739623,0 SPACEBEE-128,1 52182U 22033AB  23011.21157115  .00037694  00000-0  13047-2 0  9994,2 52182  97.3683  94.7438 0008286  11.9574 348.1861 15.29740186 43339,2022-033AB,52182,6854.725,94.134,482.27,470.911,1,2023/1/23
